FENGYUN 1C DEB          
1 30859U 99025AWV 17345.82676592  .00001041  00000-0  54132-3 0  9999
2 30859  98.8969 307.2496 0053840 174.1777 186.0034 14.16128119554337
